[{"OBJECT_NAME":"NUSAT-43 (R DIENG-KUNTZ)","OBJECT_ID":"2023-084AN","EPOCH":"2026-03-08T21:55:35.625792","MEAN_MOTION":15.74780826,"ECCENTRICITY":0.00059701,"INCLINATION":97.4369,"RA_OF_ASC_NODE":210.0765,"ARG_OF_PERICENTER":240.2474,"MEAN_ANOMALY":119.8197,"EPHEMERIS_TYPE":0,"CLASSIFICATION_TYPE":"U","NORAD_CAT_ID":56968,"ELEMENT_SET_NO":999,"REV_AT_EPOCH":15344,"BSTAR":0.0011289476,"MEAN_MOTION_DOT":0.00168767,"MEAN_MOTION_DDOT":0},{"OBJECT_NAME":"STARLINK-36936","OBJECT_ID":"2026-039AC","EPOCH":"2026-03-09T22:00:01.999584","MEAN_MOTION":15.86534474,"ECCENTRICITY":0.0001663,"INCLINATION":42.9971,"RA_OF_ASC_NODE":53.2682,"ARG_OF_PERICENTER":262.9029,"MEAN_ANOMALY":105.7687,"EPHEMERIS_TYPE":0,"CLASSIFICATION_TYPE":"U","NORAD_CAT_ID":68012,"ELEMENT_SET_NO":999,"REV_AT_EPOCH":291,"BSTAR":-0.006851069,"MEAN_MOTION_DOT":-0.01574461,"MEAN_MOTION_DDOT":0}]
